{"fetched_at":"2026-03-29T02:12:04Z","count":15717,"tles":[{"name":"COSMOS 2460 (732)","line1":"1 36402U 10007C   26084.39211837 -.00000030  00000+0  00000+0 0  9999","line2":"2 36402  65.4675 317.3041 0002062  36.6538 143.8601  2.13106133124943","category":"Other"}]}